1 27386U 02009A   10201.09785636 -.00000012  00000-0  11734-4 0  2587
2 27386 098.5494 267.7325 0001110 093.8283 266.3026 14.32247500438452